NORAD_CAT_ID,OBJECT_NAME,OBJECT_TYPE,EPOCH,MEAN_MOTION,ECCENTRICITY,INCLINATION,RA_OF_ASC_NODE,ARG_OF_PERICENTER,MEAN_ANOMALY,BSTAR,MEAN_MOTION_DOT,MEAN_MOTION_DDOT,TLE_LINE0,TLE_LINE1,TLE_LINE2,SEMIMAJOR_AXIS,PERIOD,APOGEE,PERIGEE,DECAYED
52698.0,STARLINK-4030,PAYLOAD,2023-05-18 01:43:21,15.08835978,0.0001112,53.2171,77.7768,93.3124,266.7995,1.067e-05,-1.18e-06,0.0,0 STARLINK-4030,1 52698U 22053AU  23138.07177766 -.00000118  00000-0  10670-4 0  9999,2 52698  53.2171  77.7768 0001112  93.3124 266.7995 15.08835978 55693,6917.893,95.438,540.527,538.988,0.0
52698.0,STARLINK-4030,PAYLOAD,2023-05-18 04:54:07,15.08841076,0.0001147,53.2171,77.1822,96.9056,263.2067,5.2948e-05,5.55e-06,0.0,0 STARLINK-4030,1 52698U 22053AU  23138.20425293  .00000555  00000-0  52948-4 0  9993,2 52698  53.2171  77.1822 0001147  96.9056 263.2067 15.08841076 55710,6917.877,95.437,540.536,538.949,0.0
52698.0,STARLINK-4030,PAYLOAD,2023-05-18 14:26:26,15.08836122,0.0001176,53.217,75.3971,112.6188,247.4929,3.096e-05,2.05e-06,0.0,0 STARLINK-4030,1 52698U 22053AU  23138.60169634  .00000205  00000-0  30960-4 0  9993,2 52698  53.2170  75.3971 0001176 112.6188 247.4929 15.08836122 56176,6917.892,95.438,540.571,538.944,0.0
52698.0,STARLINK-4030,PAYLOAD,2023-05-19 01:34:08,15.08836971,0.0001143,53.217,73.3142,111.3103,248.8011,-2.0408e-05,-6.13e-06,0.0,0 STARLINK-4030,1 52698U 22053AU  23139.06537864 -.00000613  00000-0 -20408-4 0  9999,2 52698  53.2170  73.3142 0001143 111.3103 248.8011 15.08836971 55843,6917.89,95.438,540.545,538.964,0.0
52698.0,STARLINK-4030,PAYLOAD,2023-05-19 19:03:23,15.08836012,0.0001294,53.2173,70.0427,135.1062,225.0035,3.8223e-05,3.2e-06,0.0,0 STARLINK-4030,1 52698U 22053AU  23139.79401754  .00000320  00000-0  38223-4 0  9994,2 52698  53.2173  70.0427 0001294 135.1062 225.0035 15.08836012 56357,6917.893,95.438,540.653,538.862,0.0
52698.0,STARLINK-4030,PAYLOAD,2023-05-20 01:24:55,15.0884419,0.0001145,53.2173,68.8564,92.1415,267.9709,4.0437e-05,3.56e-06,0.0,0 STARLINK-4030,1 52698U 22053AU  23140.05897455  .00000356  00000-0  40437-4 0  9991,2 52698  53.2173  68.8564 0001145  92.1415 267.9709 15.08844190 55991,6917.868,95.437,540.525,538.94,0.0
52698.0,STARLINK-4030,PAYLOAD,2023-05-20 04:35:41,15.08850483,0.0001184,53.2174,68.2609,91.1666,268.9462,9.3559e-05,1.202e-05,0.0,0 STARLINK-4030,1 52698U 22053AU  23140.19144890  .00001202  00000-0  93559-4 0  9998,2 52698  53.2174  68.2609 0001184  91.1666 268.9462 15.08850483 56019,6917.848,95.437,540.532,538.894,0.0
52698.0,STARLINK-4030,PAYLOAD,2023-05-21 01:15:42,15.08833477,0.0001201,53.2176,64.3948,97.9391,262.1737,0.00027623,4.11e-05,0.0,0 STARLINK-4030,1 52698U 22053AU  23141.05257158  .00004110  00000-0  27623-3 0  9995,2 52698  53.2176  64.3948 0001201  97.9391 262.1737 15.08833477 56142,6917.9,95.438,540.596,538.934,0.0
52698.0,STARLINK-4030,PAYLOAD,2023-05-21 04:26:27,15.08853032,0.0001194,53.2177,63.7972,110.0594,250.0527,0.0001571,2.214e-05,0.0,0 STARLINK-4030,1 52698U 22053AU  23141.18504010  .00002214  00000-0  15710-3 0  9998,2 52698  53.2177  63.7972 0001194 110.0594 250.0527 15.08853032 56160,6917.841,95.437,540.532,538.88,0.0
52698.0,STARLINK-4030,PAYLOAD,2023-05-22 01:06:30,15.08830777,0.0001199,53.2185,59.9338,104.4496,255.6629,-0.00013693,-2.466e-05,0.0,0 STARLINK-4030,1 52698U 22053AU  23142.04618732 -.00002466  00000-0 -13693-3 0  9990,2 52698  53.2185  59.9338 0001199 104.4496 255.6629 15.08830777 56294,6917.909,95.438,540.603,538.944,0.0
52698.0,STARLINK-4030,PAYLOAD,2023-05-23 00:57:16,15.08849241,0.0001297,53.218,55.4752,103.7238,256.3898,-6.0405e-05,-1.249e-05,0.0,0 STARLINK-4030,1 52698U 22053AU  23143.03977285 -.00001249  00000-0 -60405-4 0  9993,2 52698  53.2180  55.4752 0001297 103.7238 256.3898 15.08849241 56444,6917.852,95.437,540.614,538.82,0.0
52698.0,STARLINK-4030,PAYLOAD,2023-05-24 00:48:04,15.08832289,0.0001177,53.2163,51.0168,108.5797,251.5323,5.3012e-05,5.56e-06,0.0,0 STARLINK-4030,1 52698U 22053AU  23144.03338492  .00000556  00000-0  53012-4 0  9999,2 52698  53.2163  51.0168 0001177 108.5797 251.5323 15.08832289 56598,6917.904,95.438,540.583,538.955,0.0
52698.0,STARLINK-4030,PAYLOAD,2023-05-24 03:58:50,15.08830761,0.0001158,53.2174,50.4208,98.1683,261.944,0.00012177,1.65e-05,0.0,0 STARLINK-4030,1 52698U 22053AU  23144.16586480  .00001650  00000-0  12177-3 0  9997,2 52698  53.2174  50.4208 0001158  98.1683 261.9440 15.08830761 57011,6917.909,95.438,540.575,538.973,0.0
52698.0,STARLINK-4030,PAYLOAD,2023-05-25 21:18:52,15.08834916,0.0001005,53.2176,42.6879,91.2361,268.8746,1.4356e-05,-5.9e-07,0.0,0 STARLINK-4030,1 52698U 22053AU  23145.88810778 -.00000059  00000-0  14356-4 0  9992,2 52698  53.2176  42.6879 0001005  91.2361 268.8746 15.08834916 57277,6917.896,95.438,540.456,539.066,0.0
52698.0,STARLINK-4030,PAYLOAD,2023-05-26 03:40:24,15.08840936,0.0001055,53.2176,41.4988,96.2747,263.8365,6.1093e-05,6.85e-06,0.0,0 STARLINK-4030,1 52698U 22053AU  23146.15306236  .00000685  00000-0  61093-4 0  9996,2 52698  53.2176  41.4988 0001055  96.2747 263.8365 15.08840936 56914,6917.878,95.437,540.472,539.013,0.0
52698.0,STARLINK-4030,PAYLOAD,2023-05-26 21:09:39,15.08838164,0.000112,53.2184,38.2259,96.061,264.051,-3.9387e-05,-9.15e-06,0.0,0 STARLINK-4030,1 52698U 22053AU  23146.88170931 -.00000915  00000-0 -39387-4 0  9996,2 52698  53.2184  38.2259 0001120  96.0610 264.0510 15.08838164 57420,6917.886,95.438,540.526,538.976,0.0
52698.0,STARLINK-4030,PAYLOAD,2023-05-27 09:52:44,15.08842825,0.0001131,53.2185,35.8479,88.6745,271.4377,-6.4788e-05,-1.319e-05,0.0,0 STARLINK-4030,1 52698U 22053AU  23147.41162738 -.00001319  00000-0 -64788-4 0  9994,2 52698  53.2185  35.8479 0001131  88.6745 271.4377 15.08842825 57103,6917.872,95.437,540.519,538.954,0.0
52698.0,STARLINK-4030,PAYLOAD,2023-05-27 22:35:49,15.08843763,0.0001137,53.2183,33.4691,94.0788,266.0334,4.6047e-05,4.45e-06,0.0,0 STARLINK-4030,1 52698U 22053AU  23147.94154366  .00000445  00000-0  46047-4 0  9995,2 52698  53.2183  33.4691 0001137  94.0788 266.0334 15.08843763 57582,6917.869,95.437,540.52,538.947,0.0
52698.0,STARLINK-4030,PAYLOAD,2023-05-28 01:46:35,15.08845073,0.0001161,53.2183,32.8742,94.0534,266.0591,5.8057e-05,6.36e-06,0.0,0 STARLINK-4030,1 52698U 22053AU  23148.07402216  .00000636  00000-0  58057-4 0  9996,2 52698  53.2183  32.8742 0001161  94.0534 266.0591 15.08845073 57602,6917.865,95.437,540.533,538.927,0.0
52698.0,STARLINK-4030,PAYLOAD,2023-05-28 22:26:36,15.08842263,0.0001134,53.2182,29.0088,92.3344,267.7778,5.6489e-05,6.11e-06,0.0,0 STARLINK-4030,1 52698U 22053AU  23148.93514328  .00000611  00000-0  56489-4 0  9999,2 52698  53.2182  29.0088 0001134  92.3344 267.7778 15.08842263 57739,6917.873,95.437,540.523,538.954,0.0
52698.0,STARLINK-4030,PAYLOAD,2023-05-29 01:37:22,15.08847949,0.000119,53.2181,28.4139,91.0744,269.0385,0.00010307,1.353e-05,0.0,0 STARLINK-4030,1 52698U 22053AU  23149.06761789  .00001353  00000-0  10307-3 0  9991,2 52698  53.2181  28.4139 0001190  91.0744 269.0385 15.08847949 57757,6917.856,95.437,540.544,538.898,0.0
52698.0,STARLINK-4030,PAYLOAD,2023-05-29 15:55:51,15.08834826,0.0001133,53.2176,25.7368,96.938,263.1741,-4.4348e-05,-9.93e-06,0.0,0 STARLINK-4030,1 52698U 22053AU  23149.66379110 -.00000993  00000-0 -44348-4 0  9994,2 52698  53.2176  25.7368 0001133  96.9380 263.1741 15.08834826 57449,6917.896,95.438,540.545,538.977,0.0
52698.0,STARLINK-4030,PAYLOAD,2023-05-29 22:17:24,15.08836321,0.0001175,53.2176,24.5478,97.6445,262.4681,-2.9127e-05,-7.51e-06,0.0,0 STARLINK-4030,1 52698U 22053AU  23149.92875009 -.00000751  00000-0 -29127-4 0  9991,2 52698  53.2176  24.5478 0001175  97.6445 262.4681 15.08836321 57889,6917.892,95.438,540.569,538.944,0.0
52698.0,STARLINK-4030,PAYLOAD,2023-05-30 22:08:10,15.08844485,0.0001158,53.2181,20.0911,90.517,269.5955,-1.9418e-05,-5.97e-06,0.0,0 STARLINK-4030,1 52698U 22053AU  23150.92234685 -.00000597  00000-0 -19418-4 0  9992,2 52698  53.2181  20.0911 0001158  90.5170 269.5955 15.08844485 58036,6917.867,95.437,540.533,538.931,0.0
52698.0,STARLINK-4030,PAYLOAD,2023-05-31 01:18:56,15.08848014,0.0001134,53.2176,19.4952,88.9811,271.1311,-1.4059e-05,-5.12e-06,0.0,0 STARLINK-4030,1 52698U 22053AU  23151.05482411 -.00000512  00000-0 -14059-4 0  9992,2 52698  53.2176  19.4952 0001134  88.9811 271.1311 15.08848014 57658,6917.856,95.437,540.505,538.936,0.0
52698.0,STARLINK-4030,PAYLOAD,2023-05-31 18:48:12,15.08833338,0.0001111,53.2171,16.2237,94.1974,265.9145,5.355e-05,5.64e-06,0.0,0 STARLINK-4030,1 52698U 22053AU  23151.78347230  .00000564  00000-0  53550-4 0  9995,2 52698  53.2171  16.2237 0001111  94.1974 265.9145 15.08833338 57769,6917.901,95.438,540.534,538.997,0.0
52698.0,STARLINK-4030,PAYLOAD,2023-05-31 21:58:57,15.08839148,0.0001074,53.2175,15.6286,93.1217,266.9898,0.00010236,1.342e-05,0.0,0 STARLINK-4030,1 52698U 22053AU  23151.91594818  .00001342  00000-0  10236-3 0  9994,2 52698  53.2175  15.6286 0001074  93.1217 266.9898 15.08839148 58185,6917.883,95.438,540.491,539.005,0.0
52698.0,STARLINK-4030,PAYLOAD,2023-06-01 01:09:44,15.08839689,0.0001068,53.2173,15.0339,91.6696,268.4418,9.9992e-05,1.304e-05,0.0,0 STARLINK-4030,1 52698U 22053AU  23152.04842718  .00001304  00000-0  99992-4 0  9999,2 52698  53.2173  15.0339 0001068  91.6696 268.4418 15.08839689 57806,6917.881,95.438,540.485,539.008,0.0
52698.0,STARLINK-4030,PAYLOAD,2023-06-01 21:49:45,15.0883589,0.0001021,53.2174,11.1676,80.5279,279.5828,-1.6884e-05,-5.56e-06,0.0,0 STARLINK-4030,1 52698U 22053AU  23152.90955585 -.00000556  00000-0 -16884-4 0  9990,2 52698  53.2174  11.1676 0001021  80.5279 279.5828 15.08835890 57933,6917.893,95.438,540.464,539.052,0.0
52698.0,STARLINK-4030,PAYLOAD,2023-06-01 23:25:08,15.08840848,9.57e-05,53.2183,10.8708,78.6861,281.4239,2.2789e-05,7.5e-07,0.0,0 STARLINK-4030,1 52698U 22053AU  23152.97579164  .00000075  00000-0  22789-4 0  9997,2 52698  53.2183  10.8708 0000957  78.6861 281.4239 15.08840848 57945,6917.878,95.438,540.405,539.081,0.0
